#cP2023 10  2  0  0  0.00000000      96 ORBIT IGS20 HLM  IGS
## 2282  86400.00000000   900.00000000 60219 0.0000000000000
+   32   G01G02G03G04G05G06G07G08G09G10G11G12G13G14G15G16G17
+        G18G19G20G21G22G23G24G25G26G27G28G29G30G31G32  0  0
+          0  0  0  0  0  0  0  0  0  0  0  0  0  0  0  0  0
+          0  0  0  0  0  0  0  0  0  0  0  0  0  0  0  0  0
+          0  0  0  0  0  0  0  0  0  0  0  0  0  0  0  0  0
++         3  2  2  2  2  2  2  2  2  2  3  2  2  3  2  2  2
++         2  2  2  2  2  2  2  2  2  2  3  2  2  3  2  0  0
++         0  0  0  0  0  0  0  0  0  0  0  0  0  0  0  0  0
++         0  0  0  0  0  0  0  0  0  0  0  0  0  0  0  0  0
++         0  0  0  0  0  0  0  0  0  0  0  0  0  0  0  0  0
%c G  cc GPS ccc cccc cccc cccc cccc ccccc ccccc ccccc ccccc
%c cc cc ccc ccc cccc cccc cccc cccc ccccc ccccc ccccc ccccc
%f  1.2500000  1.025000000  0.00000000000  0.000000000000000
%f  0.0000000  0.000000000  0.00000000000  0.000000000000000
%i    0    0    0    0      0      0      0      0         0
%i    0    0    0    0      0      0      0      0         0
/* RAPID ORBIT COMBINATION FROM WEIGHTED AVERAGE OF:        
/* cod emr esa gfz grg jgx jpl ngs sio usn whu              
/* REFERENCED TO IGS TIME (IGST) AND TO WEIGHTED MEAN POLE: 
/* PCV:IGS20      OL/AL:FES2014b NONE     Y  ORB:CMB CLK:CMB
*  2023 10  2 18  0  0.00000000
PG01 -13370.390442   9231.940638  20587.085261    164.298683  3  8  9 117       
PG02 -15151.403204   2110.859778  22216.042552   -546.915153  4  3  7  96       
PG03 -23297.737356  12298.050046   2722.195980   -102.296155  5  5  5  97       
PG04 -18923.870022   3732.585250 -18304.546221    173.087223  6  3  5  93       
PG05  21413.821317  -1461.360563 -15891.523650   -144.980955  6  6  3  93       
PG06   5948.508527  24461.680527  -8255.947599    538.952149  4  5  5  84       
PG07  -6110.941995  23554.186154  -9574.924860     51.150237  6  8  4  92       
PG08 -24285.019736  -3836.159147  10477.516926   -145.142951  6  5  6  98       
PG09 -10395.592072  11751.873907 -21524.317252    -43.563912  6  3  4 106       
PG10    964.346904 -16864.061532  20591.578330    -55.751013  7  5  4  92       
PG11  12266.806122  15064.804490 -18117.928302   -396.752443  7  9  7  97       
PG12  24401.662748  -8833.693434   5200.471530   -431.430358  4  3  6 106       
PG13  22772.942632  13253.781519   3966.964751    579.438720  7  8  6  94       
PG14  -4867.166236  18295.376401  18583.906534    202.372678  4  7  6 106       
PG15  24259.713777    411.883501  10589.725982     83.225193  4  8  4 102       
PG16 -18755.438431  -5008.780138 -18634.798706   -445.336390  3  7  4  65       
PG17   5541.563041  18413.531576  18706.334740    723.867686  5  7  5  96       
PG18   5238.012771 -24602.355734  -8228.655092   -436.348039  6 11  6 110       
PG19  13810.777206  19331.786289  12020.303264    379.530223  6  8  4  74       
PG20  13863.672066   7905.086723 -21164.739533    408.857484  5  6  4 108       
PG21 -15669.970832  -2311.508101  21925.874253    147.666734  5  6  5 100       
PG22   1898.253207  15916.659340  21675.125698    110.472472  6  6  4 102       
PG23  13327.298707 -19089.965872  12621.967079     76.767739  5  7  3  86       
PG24  15096.166019  -4359.742431  21000.798114   -335.592720  7  5  6  94       
PG25  18621.651942 -17620.907326  -6698.233507    470.763348  4  6  6 101       
PG26 -10517.878251 -11960.283436 -21392.820628    225.443754  5  7  5  88       
PG27 -23255.952744 -13259.376157  -1229.602418    -48.961388  4  8  4  85       
PG28  -6008.669964 -25125.581554  -6196.143681    -18.715275  5 12  5  77       
PG29  11019.839716 -10526.153139 -21807.540352   -609.801828  7  5  3  87       
PG30    537.679095  26408.408986   -228.137757   -482.384030  5  7  6  91       
PG31 -10723.436661 -19131.600650 -14868.815864   -224.156482  7 10 10  55       
PG32 -10794.715750 -18390.948332  16140.642146   -566.938059  6  7  4 103       
*  2023 10  2 18 15  0.00000000
PG01 -13551.461814   6761.838496  21427.565365    164.298065  1  7  9 124       
PG02 -15504.216994   -286.690016  22082.976814   -546.911011  4  4  7 103       
PG03 -23002.111242  11854.990433   5571.579792   -102.276464  5  5  6 104       
PG04 -20612.859345   2663.704981 -16599.062773    173.097132  5  3  5 100       
PG05  19979.484534   -226.558252 -17731.026747   -144.982532  6  6  3  96       
PG06   5820.847070  25263.325067  -5482.074935    538.945142  4  5  5 103       
PG07  -6483.091298  22257.302950 -12043.707307     51.140907  6  8  4 101       
PG08 -25151.690686  -4469.801005   7919.838693   -145.145285  6  5  6 108       
PG09 -12558.727453  10686.692624 -20919.787605    -43.554436  6  3  4 107       
PG10   2889.741895 -18038.191589  19339.750339    -55.752386  7  5  4  81       
PG11  12153.677385  17039.782593 -16365.696819   -396.768413  8  9  7  89       
PG12  23841.520810  -8232.039592   7933.006971   -431.434234  4  4  6 105       
PG13  22910.610806  13604.120283   1124.567172    579.442640  7  8  6  77       
PG14  -6687.633420  19233.233600  16985.828716    202.382826  4  7  6 104       
PG15  25242.239821   1039.088167   8088.777660     83.228436  4  7  5 100       
PG16 -16925.242182  -6114.531172 -19989.514507   -445.331069  4  6  4  89       
PG17   3635.343986  17440.381030  20097.798851    723.867554  5  6  5 109       
PG18   5496.450716 -23518.153297 -10833.896581   -436.358827  6 10  7 104       
PG19  12437.468323  18655.647224  14300.737895    379.534819  6  8  5  89       
PG20  12114.641213   9631.301304 -21535.944385    408.855787  5  6  4 109       
PG21 -16020.054586  -4640.859453  21361.227499    147.666286  5  6  5 112       
PG22   -177.703810  16992.045247  20936.549829    110.466072  6  7  4 113       
PG23  14503.620561 -19688.557400  10147.822511     76.772739  5  7  3  84       
PG24  15513.365585  -1893.671813  21100.431255   -335.601903  6  5  6 107       
PG25  19260.965365 -17711.298947  -3931.975350    470.765053  4  6  5 106       
PG26  -8589.650339 -13438.189061 -21344.473439    225.441910  5  7  5  92       
PG27 -22921.953387 -13327.168832  -4049.682635    -48.966790  3  8  4  90       
PG28  -5818.404199 -25694.175770  -3408.653494    -18.720930  6 12  4 106       
PG29  13106.483929  -9245.831274 -21234.066801   -609.801960  7  5  2  78       
PG30    179.973427  26227.290970  -3040.450450   -482.380633  4  8  6  96       
PG31 -10559.576420 -20702.584870 -12654.298630   -224.157235  7 10  9  85       
PG32  -9010.223084 -17692.571272  17919.050956   -566.943076  6  7  4  95       
*  2023 10  2 18 30  0.00000000
PG01 -13877.258062   4233.320005  21885.707452    164.297434     6  9 121       
PG02 -15980.328909  -2626.286484  21587.503803   -546.906783  4  4  7  92       
PG03 -22477.009190  11202.630105   8324.080853   -102.256687  5  6  6  96       
PG04 -22165.676448   1773.648431 -14609.172778    173.106957  5  3  5  88       
PG05  18467.974655   1204.719535 -19270.626566   -144.983760  6  5  3 101       
PG06   5701.983579  25751.469034  -2613.182541    538.938138  4  7  5 108       
PG07  -6952.759813  20708.511497 -14294.671362     51.131663  7  7  5 102       
PG08 -25775.227112  -4949.301629   5228.639697   -145.146580  6  6  5 103       
PG09 -14691.838696   9767.338778 -19958.411882    -43.544925  6  3  5 110       
PG10   4623.081839 -19221.121324  17756.765118    -55.753583  7  5  4  85       
PG11  12129.369529  18803.795340 -14332.101366   -396.784386  8 10  7  89       
PG12  23059.532549  -7433.829702  10527.129432   -431.438419  5  5  6 101       
PG13  22791.415968  13780.194517  -1736.971505    579.446438  7  8  6  94       
PG14  -8299.420250  20146.422070  15094.035727    202.392903  4  7  6 107       
PG15  25970.924550   1540.360159   5448.042254     83.231723  4  7  5  97       
PG16 -15043.499718  -7389.091232 -21012.969583   -445.325671  4  6  4  77       
PG17   1559.267293  16513.352130  21154.755993    723.867905  5  6  5 104       
PG18   5843.021506 -22165.513597 -13250.791633   -436.369639  6 10  7 108       
PG19  10812.502467  17936.594070  16335.973044    379.539488  7  7  5  84       
PG20  10441.526645  11457.201650 -21534.916816    408.853825  4  6  5 114       
PG21 -16478.299934  -6861.827321  20450.531124    147.665534  5  6  5 109       
PG22  -2106.434061  18123.952151  19853.649222    110.459489  6  7  4 103       
PG23  15419.245482 -20166.832427   7497.361240     76.777749  4  7  3  85       
PG24  16042.490909    535.854845  20824.346311   -335.611070  6  5  5 100       
PG25  19646.398910 -17636.568800  -1097.308226    470.766732  4  6  5  96       
PG26  -6751.085456 -14992.145453 -20932.343372    225.440092  5  6  4  98       
PG27 -22305.117116 -13291.786311  -6802.096892    -48.972186  3  8  4  82       
PG28  -5607.597800 -25957.094630   -562.525611    -18.726539  7 12  4  90       
PG29  15183.120130  -8120.535182 -20297.310412   -609.802297  7  5  2  72       
PG30   -223.450249  25748.988481  -5799.485981   -482.377257  4  9  6 104       
PG31 -10447.014947 -22020.069288 -10219.598414   -224.157473  7 11  9  91       
PG32  -7022.320146 -17019.680625  19395.437785   -566.948103  5  7  3  94       
EOF
